{"spkid": "50592331", "covariance": {"epoch": "2456884.5", "data": [["1.84593518106195E-13", "-1.560980397635546E-13", "4.676492338798915E-11", "-4.61874026703263E-11", "5.48048341095051E-11", "1.091363226965741E-11"], ["-1.560980397635546E-13", "1.321995670188277E-13", "-3.976737938515611E-11", "3.878358679156385E-11", "-4.671321360986545E-11", "-9.172593535462553E-12"], ["4.676492338798915E-11", "-3.976737938515611E-11", "1.485626766252867E-8", "-1.041671990778299E-8", "1.598070794847471E-8", "2.602653197452563E-9"], ["-4.61874026703263E-11", "3.878358679156385E-11", "-1.041671990778299E-8", "1.401536231410943E-8", "-1.433740468550021E-8", "-2.448030915327857E-9"], ["5.48048341095051E-11", "-4.671321360986545E-11", "1.598070794847471E-8", "-1.433740468550021E-8", "1.971376508040443E-8", "2.677686773996004E-9"], ["1.091363226965741E-11", "-9.172593535462553E-12", "2.602653197452563E-9", "-2.448030915327857E-9", "2.677686773996004E-9", "7.782428810834236E-10"]], "elements": [{"name": "e", "sigma": 4.29643477904873e-07, "units": null, "value": ".1389383452972807", "title": "eccentricity", "label": "e"}, {"units": "au", "value": ".7656955304050599", "title": "perihelion distance", "sigma": 3.63592583833647e-07, "name": "q", "label": "q"}, {"label": "tp", "name": "tp", "sigma": 0.000121886289887455, "units": "TDB", "title": "time of perihelion passage", "value": "2457036.881667657049"}, {"label": "node", "units": "deg", "title": "longitude of the ascending node", "value": "101.5669132397671", "name": "om", "sigma": 0.000118386495488757}, {"label": "peri", "sigma": 0.000140405715981951, "name": "w", "units": "deg", "title": "argument of perihelion", "value": "212.1247450703869"}, {"title": "inclination", "value": "2.731015299742489", "units": "deg", "sigma": 2.7897004876571e-05, "name": "i", "label": "i"}], "labels": ["e", "q", "tp", "node", "peri", "i"]}, "elements": [{"title": "eccentricity", "value": ".1383248587448596", "units": null, "sigma": "4.0525E-7", "name": "e", "label": "e"}, {"label": "a", "sigma": "1.3735E-8", "name": "a", "title": "semi-major axis", "value": ".8890209982348918", "units": "au"}, {"name": "q", "sigma": "3.7159E-7", "title": "perihelion distance", "value": ".7660472942328364", "units": "au", "label": "q"}, {"title": "inclination; angle with respect to x-y ecliptic plane", "value": "2.733517574298245", "units": "deg", "sigma": "2.8076E-5", "name": "i", "label": "i"}, {"label": "node", "units": "deg", "value": "101.5633014166601", "title": "longitude of the ascending node", "sigma": ".00011652", "name": "om"}, {"label": "peri", "name": "w", "sigma": ".00014562", "units": "deg", "title": "argument of perihelion", "value": "212.1572851159361"}, {"units": "deg", "title": "mean anomaly", "value": "213.6752660965601", "sigma": ".00020043", "name": "ma", "label": "M"}, {"label": "tp", "name": "tp", "sigma": ".00016805", "units": "TDB", "value": "2461324.946216515640", "title": "time of perihelion passage"}, {"name": "per", "sigma": "7.0954E-6", "title": "sidereal orbital period", "value": "306.1726937784451", "units": "d", "label": "period"}, {"label": "n", "units": "deg/d", "value": "1.175807011256548", "title": "mean motion", "name": "n", "sigma": "2.7249E-8"}, {"sigma": "1.5635E-8", "name": "ad", "units": "au", "value": "1.011994702236947", "title": "aphelion distance", "label": "Q"}], "epoch": "2461200.5"}